SL-14 R/B               
1 16792U 86046B   25352.17068398  .00000466  00000+0  50914-4 0  9996
2 16792  82.4812 157.1849 0024168 134.9385 225.3797 14.85490625114309
SL-14 R/B               
1 16882U 86055B   25352.11222955  .00000402  00000+0  43635-4 0  9993
2 16882  82.5198 203.3246 0017606 240.1220 239.1320 14.85535996107251
AJISAI (EGS)            
1 16908U 86061A   25352.29114708 -.00000093  00000+0  29593-4 0  9998
2 16908  50.0113 343.6470 0011309  79.8820  20.4782 12.44514360457864
COSMOS 1812             
1 17295U 87003A   25352.25420005  .00106333  00000+0  66132-3 0  9993
2 17295  82.4877 286.0421 0007007  78.9645 281.2408 15.76601137131522
SL-14 R/B               
1 17567U 87024B   25352.23364714  .00000456  00000+0  49271-4 0  9995
2 17567  82.5275 169.2934 0018565 166.0226 194.1509 14.86029407 76035
COSMOS 1833             
1 17589U 87027A   25352.09790525  .00000190  00000+0  12731-3 0  9994
2 17589  70.9144 137.5131 0022762 324.2398  35.7197 14.13024017998784
SL-16 R/B               
1 17590U 87027B   25352.23751322  .00000239  00000+0  14210-3 0  9992
2 17590  71.0035  88.1337 0007279 253.5971 106.4352 14.17154209  3803
SL-14 R/B               
1 17912U 87038B   25352.32148239  .00000381  00000+0  41391-4 0  9998
2 17912  82.5012  13.4432 0020842  75.0262 285.3259 14.85266207 67159
COSMOS 1844             
1 17973U 87041A   25352.28998851  .00000167  00000+0  11172-3 0  9992
2 17973  70.8964 205.8648 0029883 148.3213 211.9715 14.14527144992074
SL-14 R/B               
1 18153U 87055B   25352.24501427  .00000404  00000+0  43836-4 0  9990
2 18153  82.4998  65.8003 0019206 283.8390  76.0689 14.85526848 57844
COSMOS 1867             
1 18187U 87060A   25352.26171588 -.00000041  00000+0  22407-4 0  9995
2 18187  65.0086 174.7387 0013630 271.6859  88.2664 14.31486969  8283
SL-14 R/B               
1 18749U 88001B   25352.23498501  .00000399  00000+0  43360-4 0  9995
2 18749  82.5135 271.9789 0018942 143.5627 216.6883 14.85429628 29936
