CCSDS_OMM_VERS = 2.0
CREATION_DATE  = 
ORIGINATOR     = 

OBJECT_NAME    = SL-14 R/B
OBJECT_ID      = 1986-046B
CENTER_NAME    = EARTH
REF_FRAME      = TEME
TIME_SYSTEM    = UTC
MEAN_ELEMENT_THEORY = SGP/SGP4

EPOCH          = 2025-12-18T04:05:47.095872
MEAN_MOTION    = 14.85490625
ECCENTRICITY   = .00241683
INCLINATION    = 82.4812
RA_OF_ASC_NODE = 157.1849
ARG_OF_PERICENTER = 134.9385
MEAN_ANOMALY   = 225.3797

EPHEMERIS_TYPE = 0
CLASSIFICATION_TYPE = U
NORAD_CAT_ID   = 16792
ELEMENT_SET_NO = 999
REV_AT_EPOCH   = 11430
BSTAR          = .50913594E-4
MEAN_MOTION_DOT = .466E-5
MEAN_MOTION_DDOT = 0

CCSDS_OMM_VERS = 2.0
CREATION_DATE  = 
ORIGINATOR     = 

OBJECT_NAME    = SL-14 R/B
OBJECT_ID      = 1986-055B
CENTER_NAME    = EARTH
REF_FRAME      = TEME
TIME_SYSTEM    = UTC
MEAN_ELEMENT_THEORY = SGP/SGP4

EPOCH          = 2025-12-18T02:41:36.633120
MEAN_MOTION    = 14.85535996
ECCENTRICITY   = .00176068
INCLINATION    = 82.5198
RA_OF_ASC_NODE = 203.3246
ARG_OF_PERICENTER = 240.1220
MEAN_ANOMALY   = 239.1320

EPHEMERIS_TYPE = 0
CLASSIFICATION_TYPE = U
NORAD_CAT_ID   = 16882
ELEMENT_SET_NO = 999
REV_AT_EPOCH   = 10725
BSTAR          = .43635445E-4
MEAN_MOTION_DOT = .402E-5
MEAN_MOTION_DDOT = 0

CCSDS_OMM_VERS = 2.0
CREATION_DATE  = 
ORIGINATOR     = 

OBJECT_NAME    = AJISAI (EGS)
OBJECT_ID      = 1986-061A
CENTER_NAME    = EARTH
REF_FRAME      = TEME
TIME_SYSTEM    = UTC
MEAN_ELEMENT_THEORY = SGP/SGP4

EPOCH          = 2025-12-18T06:59:15.107712
MEAN_MOTION    = 12.44514360
ECCENTRICITY   = .00113098
INCLINATION    = 50.0113
RA_OF_ASC_NODE = 343.6470
ARG_OF_PERICENTER = 79.8820
MEAN_ANOMALY   = 20.4782

EPHEMERIS_TYPE = 0
CLASSIFICATION_TYPE = U
NORAD_CAT_ID   = 16908
ELEMENT_SET_NO = 999
REV_AT_EPOCH   = 45786
BSTAR          = .29593354E-4
MEAN_MOTION_DOT = -.93E-6
MEAN_MOTION_DDOT = 0

CCSDS_OMM_VERS = 2.0
CREATION_DATE  = 
ORIGINATOR     = 

OBJECT_NAME    = COSMOS 1812
OBJECT_ID      = 1987-003A
CENTER_NAME    = EARTH
REF_FRAME      = TEME
TIME_SYSTEM    = UTC
MEAN_ELEMENT_THEORY = SGP/SGP4

EPOCH          = 2025-12-18T06:06:02.884320
MEAN_MOTION    = 15.76601137
ECCENTRICITY   = .00070079
INCLINATION    = 82.4877
RA_OF_ASC_NODE = 286.0421
ARG_OF_PERICENTER = 78.9645
MEAN_ANOMALY   = 281.2408

EPHEMERIS_TYPE = 0
CLASSIFICATION_TYPE = U
NORAD_CAT_ID   = 17295
ELEMENT_SET_NO = 999
REV_AT_EPOCH   = 13152
BSTAR          = .66131551E-3
MEAN_MOTION_DOT = .106333E-2
MEAN_MOTION_DDOT = 0

CCSDS_OMM_VERS = 2.0
CREATION_DATE  = 
ORIGINATOR     = 

OBJECT_NAME    = SL-14 R/B
OBJECT_ID      = 1987-024B
CENTER_NAME    = EARTH
REF_FRAME      = TEME
TIME_SYSTEM    = UTC
MEAN_ELEMENT_THEORY = SGP/SGP4

EPOCH          = 2025-12-18T05:36:27.112896
MEAN_MOTION    = 14.86029407
ECCENTRICITY   = .00185653
INCLINATION    = 82.5275
RA_OF_ASC_NODE = 169.2934
ARG_OF_PERICENTER = 166.0226
MEAN_ANOMALY   = 194.1509

EPHEMERIS_TYPE = 0
CLASSIFICATION_TYPE = U
NORAD_CAT_ID   = 17567
ELEMENT_SET_NO = 999
REV_AT_EPOCH   = 7603
BSTAR          = .49270841E-4
MEAN_MOTION_DOT = .456E-5
MEAN_MOTION_DDOT = 0

CCSDS_OMM_VERS = 2.0
CREATION_DATE  = 
ORIGINATOR     = 

OBJECT_NAME    = COSMOS 1833
OBJECT_ID      = 1987-027A
CENTER_NAME    = EARTH
REF_FRAME      = TEME
TIME_SYSTEM    = UTC
MEAN_ELEMENT_THEORY = SGP/SGP4

EPOCH          = 2025-12-18T02:20:59.013600
MEAN_MOTION    = 14.13024017
ECCENTRICITY   = .00227629
INCLINATION    = 70.9144
RA_OF_ASC_NODE = 137.5131
ARG_OF_PERICENTER = 324.2398
MEAN_ANOMALY   = 35.7197

EPHEMERIS_TYPE = 0
CLASSIFICATION_TYPE = U
NORAD_CAT_ID   = 17589
ELEMENT_SET_NO = 999
REV_AT_EPOCH   = 99878
BSTAR          = .12730838E-3
MEAN_MOTION_DOT = .19E-5
MEAN_MOTION_DDOT = 0

CCSDS_OMM_VERS = 2.0
CREATION_DATE  = 
ORIGINATOR     = 

OBJECT_NAME    = SL-16 R/B
OBJECT_ID      = 1987-027B
CENTER_NAME    = EARTH
REF_FRAME      = TEME
TIME_SYSTEM    = UTC
MEAN_ELEMENT_THEORY = SGP/SGP4

EPOCH          = 2025-12-18T05:42:01.142208
MEAN_MOTION    = 14.17154209
ECCENTRICITY   = .00072796
INCLINATION    = 71.0035
RA_OF_ASC_NODE = 88.1337
ARG_OF_PERICENTER = 253.5971
MEAN_ANOMALY   = 106.4352

EPHEMERIS_TYPE = 0
CLASSIFICATION_TYPE = U
NORAD_CAT_ID   = 17590
ELEMENT_SET_NO = 999
REV_AT_EPOCH   = 380
BSTAR          = .14210184E-3
MEAN_MOTION_DOT = .239E-5
MEAN_MOTION_DDOT = 0

CCSDS_OMM_VERS = 2.0
CREATION_DATE  = 
ORIGINATOR     = 

OBJECT_NAME    = SL-14 R/B
OBJECT_ID      = 1987-038B
CENTER_NAME    = EARTH
REF_FRAME      = TEME
TIME_SYSTEM    = UTC
MEAN_ELEMENT_THEORY = SGP/SGP4

EPOCH          = 2025-12-18T07:42:56.078496
MEAN_MOTION    = 14.85266207
ECCENTRICITY   = .0020842
INCLINATION    = 82.5012
RA_OF_ASC_NODE = 13.4432
ARG_OF_PERICENTER = 75.0262
MEAN_ANOMALY   = 285.3259

EPHEMERIS_TYPE = 0
CLASSIFICATION_TYPE = U
NORAD_CAT_ID   = 17912
ELEMENT_SET_NO = 999
REV_AT_EPOCH   = 6715
BSTAR          = .41391006E-4
MEAN_MOTION_DOT = .381E-5
MEAN_MOTION_DDOT = 0

CCSDS_OMM_VERS = 2.0
CREATION_DATE  = 
ORIGINATOR     = 

OBJECT_NAME    = COSMOS 1844
OBJECT_ID      = 1987-041A
CENTER_NAME    = EARTH
REF_FRAME      = TEME
TIME_SYSTEM    = UTC
MEAN_ELEMENT_THEORY = SGP/SGP4

EPOCH          = 2025-12-18T06:57:35.007264
MEAN_MOTION    = 14.14527144
ECCENTRICITY   = .00298838
INCLINATION    = 70.8964
RA_OF_ASC_NODE = 205.8648
ARG_OF_PERICENTER = 148.3213
MEAN_ANOMALY   = 211.9715

EPHEMERIS_TYPE = 0
CLASSIFICATION_TYPE = U
NORAD_CAT_ID   = 17973
ELEMENT_SET_NO = 999
REV_AT_EPOCH   = 99207
BSTAR          = .1117242E-3
MEAN_MOTION_DOT = .167E-5
MEAN_MOTION_DDOT = 0

CCSDS_OMM_VERS = 2.0
CREATION_DATE  = 
ORIGINATOR     = 

OBJECT_NAME    = SL-14 R/B
OBJECT_ID      = 1987-055B
CENTER_NAME    = EARTH
REF_FRAME      = TEME
TIME_SYSTEM    = UTC
MEAN_ELEMENT_THEORY = SGP/SGP4

EPOCH          = 2025-12-18T05:52:49.232928
MEAN_MOTION    = 14.85526848
ECCENTRICITY   = .00192068
INCLINATION    = 82.4998
RA_OF_ASC_NODE = 65.8003
ARG_OF_PERICENTER = 283.8390
MEAN_ANOMALY   = 76.0689

EPHEMERIS_TYPE = 0
CLASSIFICATION_TYPE = U
NORAD_CAT_ID   = 18153
ELEMENT_SET_NO = 999
REV_AT_EPOCH   = 5784
BSTAR          = .43835803E-4
MEAN_MOTION_DOT = .404E-5
MEAN_MOTION_DDOT = 0

CCSDS_OMM_VERS = 2.0
CREATION_DATE  = 
ORIGINATOR     = 

OBJECT_NAME    = COSMOS 1867
OBJECT_ID      = 1987-060A
CENTER_NAME    = EARTH
REF_FRAME      = TEME
TIME_SYSTEM    = UTC
MEAN_ELEMENT_THEORY = SGP/SGP4

EPOCH          = 2025-12-18T06:16:52.252032
MEAN_MOTION    = 14.31486969
ECCENTRICITY   = .00136303
INCLINATION    = 65.0086
RA_OF_ASC_NODE = 174.7387
ARG_OF_PERICENTER = 271.6859
MEAN_ANOMALY   = 88.2664

EPHEMERIS_TYPE = 0
CLASSIFICATION_TYPE = U
NORAD_CAT_ID   = 18187
ELEMENT_SET_NO = 999
REV_AT_EPOCH   = 828
BSTAR          = .22407429E-4
MEAN_MOTION_DOT = -.41E-6
MEAN_MOTION_DDOT = 0

CCSDS_OMM_VERS = 2.0
CREATION_DATE  = 
ORIGINATOR     = 

OBJECT_NAME    = SL-14 R/B
OBJECT_ID      = 1988-001B
CENTER_NAME    = EARTH
REF_FRAME      = TEME
TIME_SYSTEM    = UTC
MEAN_ELEMENT_THEORY = SGP/SGP4

EPOCH          = 2025-12-18T05:38:22.704864
MEAN_MOTION    = 14.85429628
ECCENTRICITY   = .00189429
INCLINATION    = 82.5135
RA_OF_ASC_NODE = 271.9789
ARG_OF_PERICENTER = 143.5627
MEAN_ANOMALY   = 216.6883

EPHEMERIS_TYPE = 0
CLASSIFICATION_TYPE = U
NORAD_CAT_ID   = 18749
ELEMENT_SET_NO = 999
REV_AT_EPOCH   = 2993
BSTAR          = .43360252E-4
MEAN_MOTION_DOT = .399E-5
MEAN_MOTION_DDOT = 0

